SL-3 R/B                
1 13403U 82079B   26090.84524380  .00006560  00000+0  25871-3 0  9990
2 13403  81.1482 166.9165 0025496  92.0178 268.3976 15.25095357381076
SL-14 R/B               
1 13553U 82092B   26090.79595550  .00000584  00000+0  62832-4 0  9991
2 13553  82.5654 120.7186 0019209 224.6776 243.4920 14.86686751332216
SL-3 R/B                
1 13819U 83010B   26090.62719490  .00017834  00000+0  34953-3 0  9998
2 13819  81.1051 335.3396 0015724 335.5663  24.4835 15.47100022361336
SL-3 R/B                
1 14208U 83075B   26090.79835173  .00013403  00000+0  34678-3 0  9999
2 14208  97.6132  96.2215 0022550 146.4305 213.8373 15.38947308333551
COSMOS 1536             
1 14699U 84013A   26090.71605763  .00009510  00000+0  38878-3 0  9998
2 14699  82.5410  85.9435 0013710 197.2286 162.8487 15.24133070275974
SL-14 R/B               
1 14820U 84027B   26090.71231947  .00000732  00000+0  80869-4 0  9993
2 14820  82.5422 224.3569 0016498 259.6730 100.2627 14.86000588250905
SL-8 R/B                
1 15483U 85006B   26090.36075271  .00000375  00000+0  13277-3 0  9995
2 15483  74.0455 221.2693 0017585 132.7551 257.7416 14.37799045157142
SL-12 R/B(2)            
1 15772U 85042D   26090.30798973  .00000094  00000+0  63875-4 0  9999
2 15772  71.1093  42.0527 0032852  92.2715  59.5144 14.21988631117461
SL-14 R/B               
1 15945U 85069B   26090.69039370  .00000656  00000+0  71180-4 0  9993
2 15945  82.5305   4.2512 0020167 117.2694 243.0580 14.86457372176103
SL-16 R/B               
1 16182U 85097B   26090.75726677 -.00000161  00000+0 -56794-4 0  9995
2 16182  71.0007  94.0930 0009366 233.9145 299.2322 14.16603272 90359
SL-14 R/B               
1 16496U 86006B   26090.86370418  .00001261  00000+0  13134-3 0  9994
2 16496  82.5256 238.8633 0076032 198.1523 161.6978 14.86852754152507
COSMOS 1743             
1 16719U 86034A   26090.84424792  .00053979  00000+0  65288-3 0  9996
2 16719  82.5310  50.5454 0005010 162.9882 197.1544 15.60466996183702
