CCSDS_OMM_VERS = 2.0
CREATION_DATE  = 
ORIGINATOR     = 

OBJECT_NAME    = SL-3 R/B
OBJECT_ID      = 1982-079B
CENTER_NAME    = EARTH
REF_FRAME      = TEME
TIME_SYSTEM    = UTC
MEAN_ELEMENT_THEORY = SGP/SGP4

EPOCH          = 2026-03-31T20:17:09.064320
MEAN_MOTION    = 15.25095357
ECCENTRICITY   = .0025496
INCLINATION    = 81.1482
RA_OF_ASC_NODE = 166.9165
ARG_OF_PERICENTER = 92.0178
MEAN_ANOMALY   = 268.3976

EPHEMERIS_TYPE = 0
CLASSIFICATION_TYPE = U
NORAD_CAT_ID   = 13403
ELEMENT_SET_NO = 999
REV_AT_EPOCH   = 38107
BSTAR          = .25871E-3
MEAN_MOTION_DOT = .656E-4
MEAN_MOTION_DDOT = 0

CCSDS_OMM_VERS = 2.0
CREATION_DATE  = 
ORIGINATOR     = 

OBJECT_NAME    = SL-14 R/B
OBJECT_ID      = 1982-092B
CENTER_NAME    = EARTH
REF_FRAME      = TEME
TIME_SYSTEM    = UTC
MEAN_ELEMENT_THEORY = SGP/SGP4

EPOCH          = 2026-03-31T19:06:10.555200
MEAN_MOTION    = 14.86686751
ECCENTRICITY   = .0019209
INCLINATION    = 82.5654
RA_OF_ASC_NODE = 120.7186
ARG_OF_PERICENTER = 224.6776
MEAN_ANOMALY   = 243.4920

EPHEMERIS_TYPE = 0
CLASSIFICATION_TYPE = U
NORAD_CAT_ID   = 13553
ELEMENT_SET_NO = 999
REV_AT_EPOCH   = 33221
BSTAR          = .62832E-4
MEAN_MOTION_DOT = .584E-5
MEAN_MOTION_DDOT = 0

CCSDS_OMM_VERS = 2.0
CREATION_DATE  = 
ORIGINATOR     = 

OBJECT_NAME    = SL-3 R/B
OBJECT_ID      = 1983-010B
CENTER_NAME    = EARTH
REF_FRAME      = TEME
TIME_SYSTEM    = UTC
MEAN_ELEMENT_THEORY = SGP/SGP4

EPOCH          = 2026-03-31T15:03:09.639360
MEAN_MOTION    = 15.47100022
ECCENTRICITY   = .0015724
INCLINATION    = 81.1051
RA_OF_ASC_NODE = 335.3396
ARG_OF_PERICENTER = 335.5663
MEAN_ANOMALY   = 24.4835

EPHEMERIS_TYPE = 0
CLASSIFICATION_TYPE = U
NORAD_CAT_ID   = 13819
ELEMENT_SET_NO = 999
REV_AT_EPOCH   = 36133
BSTAR          = .34953E-3
MEAN_MOTION_DOT = .17834E-3
MEAN_MOTION_DDOT = 0

CCSDS_OMM_VERS = 2.0
CREATION_DATE  = 
ORIGINATOR     = 

OBJECT_NAME    = SL-3 R/B
OBJECT_ID      = 1983-075B
CENTER_NAME    = EARTH
REF_FRAME      = TEME
TIME_SYSTEM    = UTC
MEAN_ELEMENT_THEORY = SGP/SGP4

EPOCH          = 2026-03-31T19:09:37.589472
MEAN_MOTION    = 15.38947308
ECCENTRICITY   = .002255
INCLINATION    = 97.6132
RA_OF_ASC_NODE = 96.2215
ARG_OF_PERICENTER = 146.4305
MEAN_ANOMALY   = 213.8373

EPHEMERIS_TYPE = 0
CLASSIFICATION_TYPE = U
NORAD_CAT_ID   = 14208
ELEMENT_SET_NO = 999
REV_AT_EPOCH   = 33355
BSTAR          = .34678E-3
MEAN_MOTION_DOT = .13403E-3
MEAN_MOTION_DDOT = 0

CCSDS_OMM_VERS = 2.0
CREATION_DATE  = 
ORIGINATOR     = 

OBJECT_NAME    = COSMOS 1536
OBJECT_ID      = 1984-013A
CENTER_NAME    = EARTH
REF_FRAME      = TEME
TIME_SYSTEM    = UTC
MEAN_ELEMENT_THEORY = SGP/SGP4

EPOCH          = 2026-03-31T17:11:07.379232
MEAN_MOTION    = 15.24133070
ECCENTRICITY   = .001371
INCLINATION    = 82.5410
RA_OF_ASC_NODE = 85.9435
ARG_OF_PERICENTER = 197.2286
MEAN_ANOMALY   = 162.8487

EPHEMERIS_TYPE = 0
CLASSIFICATION_TYPE = U
NORAD_CAT_ID   = 14699
ELEMENT_SET_NO = 999
REV_AT_EPOCH   = 27597
BSTAR          = .38878E-3
MEAN_MOTION_DOT = .951E-4
MEAN_MOTION_DDOT = 0

CCSDS_OMM_VERS = 2.0
CREATION_DATE  = 
ORIGINATOR     = 

OBJECT_NAME    = SL-14 R/B
OBJECT_ID      = 1984-027B
CENTER_NAME    = EARTH
REF_FRAME      = TEME
TIME_SYSTEM    = UTC
MEAN_ELEMENT_THEORY = SGP/SGP4

EPOCH          = 2026-03-31T17:05:44.402208
MEAN_MOTION    = 14.86000588
ECCENTRICITY   = .0016498
INCLINATION    = 82.5422
RA_OF_ASC_NODE = 224.3569
ARG_OF_PERICENTER = 259.6730
MEAN_ANOMALY   = 100.2627

EPHEMERIS_TYPE = 0
CLASSIFICATION_TYPE = U
NORAD_CAT_ID   = 14820
ELEMENT_SET_NO = 999
REV_AT_EPOCH   = 25090
BSTAR          = .80869E-4
MEAN_MOTION_DOT = .732E-5
MEAN_MOTION_DDOT = 0

CCSDS_OMM_VERS = 2.0
CREATION_DATE  = 
ORIGINATOR     = 

OBJECT_NAME    = SL-8 R/B
OBJECT_ID      = 1985-006B
CENTER_NAME    = EARTH
REF_FRAME      = TEME
TIME_SYSTEM    = UTC
MEAN_ELEMENT_THEORY = SGP/SGP4

EPOCH          = 2026-03-31T08:39:29.034144
MEAN_MOTION    = 14.37799045
ECCENTRICITY   = .0017585
INCLINATION    = 74.0455
RA_OF_ASC_NODE = 221.2693
ARG_OF_PERICENTER = 132.7551
MEAN_ANOMALY   = 257.7416

EPHEMERIS_TYPE = 0
CLASSIFICATION_TYPE = U
NORAD_CAT_ID   = 15483
ELEMENT_SET_NO = 999
REV_AT_EPOCH   = 15714
BSTAR          = .13277242E-3
MEAN_MOTION_DOT = .375E-5
MEAN_MOTION_DDOT = 0

CCSDS_OMM_VERS = 2.0
CREATION_DATE  = 
ORIGINATOR     = 

OBJECT_NAME    = SL-12 R/B(2)
OBJECT_ID      = 1985-042D
CENTER_NAME    = EARTH
REF_FRAME      = TEME
TIME_SYSTEM    = UTC
MEAN_ELEMENT_THEORY = SGP/SGP4

EPOCH          = 2026-03-31T07:23:30.312672
MEAN_MOTION    = 14.21988631
ECCENTRICITY   = .0032852
INCLINATION    = 71.1093
RA_OF_ASC_NODE = 42.0527
ARG_OF_PERICENTER = 92.2715
MEAN_ANOMALY   = 59.5144

EPHEMERIS_TYPE = 0
CLASSIFICATION_TYPE = U
NORAD_CAT_ID   = 15772
ELEMENT_SET_NO = 999
REV_AT_EPOCH   = 11746
BSTAR          = .63875E-4
MEAN_MOTION_DOT = .94E-6
MEAN_MOTION_DDOT = 0

CCSDS_OMM_VERS = 2.0
CREATION_DATE  = 
ORIGINATOR     = 

OBJECT_NAME    = SL-14 R/B
OBJECT_ID      = 1985-069B
CENTER_NAME    = EARTH
REF_FRAME      = TEME
TIME_SYSTEM    = UTC
MEAN_ELEMENT_THEORY = SGP/SGP4

EPOCH          = 2026-03-31T16:34:10.015680
MEAN_MOTION    = 14.86457372
ECCENTRICITY   = .0020167
INCLINATION    = 82.5305
RA_OF_ASC_NODE = 4.2512
ARG_OF_PERICENTER = 117.2694
MEAN_ANOMALY   = 243.0580

EPHEMERIS_TYPE = 0
CLASSIFICATION_TYPE = U
NORAD_CAT_ID   = 15945
ELEMENT_SET_NO = 999
REV_AT_EPOCH   = 17610
BSTAR          = .7118E-4
MEAN_MOTION_DOT = .656E-5
MEAN_MOTION_DDOT = 0

CCSDS_OMM_VERS = 2.0
CREATION_DATE  = 
ORIGINATOR     = 

OBJECT_NAME    = SL-16 R/B
OBJECT_ID      = 1985-097B
CENTER_NAME    = EARTH
REF_FRAME      = TEME
TIME_SYSTEM    = UTC
MEAN_ELEMENT_THEORY = SGP/SGP4

EPOCH          = 2026-03-31T18:10:27.848928
MEAN_MOTION    = 14.16603272
ECCENTRICITY   = .0009366
INCLINATION    = 71.0007
RA_OF_ASC_NODE = 94.0930
ARG_OF_PERICENTER = 233.9145
MEAN_ANOMALY   = 299.2322

EPHEMERIS_TYPE = 0
CLASSIFICATION_TYPE = U
NORAD_CAT_ID   = 16182
ELEMENT_SET_NO = 999
REV_AT_EPOCH   = 9035
BSTAR          = -.56794E-4
MEAN_MOTION_DOT = -.161E-5
MEAN_MOTION_DDOT = 0

CCSDS_OMM_VERS = 2.0
CREATION_DATE  = 
ORIGINATOR     = 

OBJECT_NAME    = SL-14 R/B
OBJECT_ID      = 1986-006B
CENTER_NAME    = EARTH
REF_FRAME      = TEME
TIME_SYSTEM    = UTC
MEAN_ELEMENT_THEORY = SGP/SGP4

EPOCH          = 2026-03-31T20:43:44.041152
MEAN_MOTION    = 14.86852754
ECCENTRICITY   = .0076032
INCLINATION    = 82.5256
RA_OF_ASC_NODE = 238.8633
ARG_OF_PERICENTER = 198.1523
MEAN_ANOMALY   = 161.6978

EPHEMERIS_TYPE = 0
CLASSIFICATION_TYPE = U
NORAD_CAT_ID   = 16496
ELEMENT_SET_NO = 999
REV_AT_EPOCH   = 15250
BSTAR          = .13134E-3
MEAN_MOTION_DOT = .1261E-4
MEAN_MOTION_DDOT = 0

CCSDS_OMM_VERS = 2.0
CREATION_DATE  = 
ORIGINATOR     = 

OBJECT_NAME    = COSMOS 1743
OBJECT_ID      = 1986-034A
CENTER_NAME    = EARTH
REF_FRAME      = TEME
TIME_SYSTEM    = UTC
MEAN_ELEMENT_THEORY = SGP/SGP4

EPOCH          = 2026-03-31T20:15:43.020288
MEAN_MOTION    = 15.60466996
ECCENTRICITY   = .000501
INCLINATION    = 82.5310
RA_OF_ASC_NODE = 50.5454
ARG_OF_PERICENTER = 162.9882
MEAN_ANOMALY   = 197.1544

EPHEMERIS_TYPE = 0
CLASSIFICATION_TYPE = U
NORAD_CAT_ID   = 16719
ELEMENT_SET_NO = 999
REV_AT_EPOCH   = 18370
BSTAR          = .65288E-3
MEAN_MOTION_DOT = .53979E-3
MEAN_MOTION_DDOT = 0

